{
"type": "FeatureCollection",
"name": "hyderabad_tourism_attractions",
"crs": { "type": "name", "properties": { "name": "urn:ogc:def:crs:OGC:1.3:CRS84" } },
"features": [
{ "type": "Feature", "properties": { "id": "tourism_attraction_hyderabad_.1", "Name": "Shilpa Kala Vedika", "description": null, "timestamp": null, "begin": null, "end": null, "altitudeMode": null, "tessellate": -1, "extrude": 0, "visibility": -1, "drawOrder": null, "icon": null, "full_id": "n317759267", "osm_id": "317759267", "osm_type": "node", "tourism": "attraction", "operator": null, "addr:city": null, "name:signed": null, "width": null, "height": null, "entrance": null, "addr:postcode": null, "wikipedia": null, "wikimedia_commons": null, "wikidata": null, "name:en": null, "name:hi": null, "opening_hours": null, "addr:street": null, "barrier": null, "access": null, "shop": null, "religion": null, "denomination": null, "wheelchair": null, "name:te": "శిల్ప కళా వేదిక", "amenity": "theatre" }, "geometry": { "type": "Point", "coordinates": [ 78.3792883, 17.4513921 ] } },
{ "type": "Feature", "properties": { "id": "tourism_attraction_hyderabad_.2", "Name": "Shilparamam Crafts Village", "description": null, "timestamp": null, "begin": null, "end": null, "altitudeMode": null, "tessellate": -1, "extrude": 0, "visibility": -1, "drawOrder": null, "icon": null, "full_id": "n317759720", "osm_id": "317759720", "osm_type": "node", "tourism": "attraction", "operator": null, "addr:city": null, "name:signed": null, "width": null, "height": null, "entrance": null, "addr:postcode": null, "wikipedia": null, "wikimedia_commons": null, "wikidata": null, "name:en": null, "name:hi": null, "opening_hours": null, "addr:street": null, "barrier": null, "access": null, "shop": null, "religion": null, "denomination": null, "wheelchair": "yes", "name:te": null, "amenity": "arts_centre" }, "geometry": { "type": "Point", "coordinates": [ 78.3779737, 17.4526547 ] } },
{ "type": "Feature", "properties": { "id": "tourism_attraction_hyderabad_.3", "Name": "alawa bibi", "description": null, "timestamp": null, "begin": null, "end": null, "altitudeMode": null, "tessellate": -1, "extrude": 0, "visibility": -1, "drawOrder": null, "icon": null, "full_id": "n626897221", "osm_id": "626897221", "osm_type": "node", "tourism": "attraction", "operator": null, "addr:city": null, "name:signed": null, "width": null, "height": null, "entrance": null, "addr:postcode": null, "wikipedia": null, "wikimedia_commons": null, "wikidata": null, "name:en": null, "name:hi": null, "opening_hours": null, "addr:street": null, "barrier": null, "access": null, "shop": null, "religion": "muslim", "denomination": "shia", "wheelchair": null, "name:te": null, "amenity": "place_of_worship" }, "geometry": { "type": "Point", "coordinates": [ 78.4858885, 17.365647 ] } },
{ "type": "Feature", "properties": { "id": "tourism_attraction_hyderabad_.4", "Name": "Exhibition Grounds", "description": null, "timestamp": null, "begin": null, "end": null, "altitudeMode": null, "tessellate": -1, "extrude": 0, "visibility": -1, "drawOrder": null, "icon": null, "full_id": "n626940817", "osm_id": "626940817", "osm_type": "node", "tourism": "attraction", "operator": null, "addr:city": null, "name:signed": null, "width": null, "height": null, "entrance": null, "addr:postcode": null, "wikipedia": null, "wikimedia_commons": null, "wikidata": null, "name:en": null, "name:hi": null, "opening_hours": null, "addr:street": null, "barrier": null, "access": null, "shop": "outdoor", "religion": null, "denomination": null, "wheelchair": null, "name:te": null, "amenity": null }, "geometry": { "type": "Point", "coordinates": [ 78.4704712, 17.38675 ] } },
{ "type": "Feature", "properties": { "id": "tourism_attraction_hyderabad_.5", "Name": "Snow world", "description": null, "timestamp": null, "begin": null, "end": null, "altitudeMode": null, "tessellate": -1, "extrude": 0, "visibility": -1, "drawOrder": null, "icon": null, "full_id": "n726751707", "osm_id": "726751707", "osm_type": "node", "tourism": "attraction", "operator": null, "addr:city": null, "name:signed": null, "width": null, "height": null, "entrance": null, "addr:postcode": null, "wikipedia": null, "wikimedia_commons": null, "wikidata": null, "name:en": null, "name:hi": null, "opening_hours": null, "addr:street": null, "barrier": null, "access": null, "shop": null, "religion": null, "denomination": null, "wheelchair": null, "name:te": null, "amenity": null }, "geometry": { "type": "Point", "coordinates": [ 78.4808321, 17.4143801 ] } },
{ "type": "Feature", "properties": { "id": "tourism_attraction_hyderabad_.6", "Name": null, "description": null, "timestamp": null, "begin": null, "end": null, "altitudeMode": null, "tessellate": -1, "extrude": 0, "visibility": -1, "drawOrder": null, "icon": null, "full_id": "n3249939439", "osm_id": "3249939439", "osm_type": "node", "tourism": null, "operator": null, "addr:city": null, "name:signed": null, "width": null, "height": null, "entrance": null, "addr:postcode": null, "wikipedia": null, "wikimedia_commons": null, "wikidata": null, "name:en": null, "name:hi": null, "opening_hours": null, "addr:street": null, "barrier": "gate", "access": "private", "shop": null, "religion": null, "denomination": null, "wheelchair": null, "name:te": null, "amenity": null }, "geometry": { "type": "Point", "coordinates": [ 78.4683054, 17.4111989 ] } },
{ "type": "Feature", "properties": { "id": "tourism_attraction_hyderabad_.7", "Name": "shilparamam", "description": null, "timestamp": null, "begin": null, "end": null, "altitudeMode": null, "tessellate": -1, "extrude": 0, "visibility": -1, "drawOrder": null, "icon": null, "full_id": "n3943151565", "osm_id": "3943151565", "osm_type": "node", "tourism": "attraction", "operator": null, "addr:city": null, "name:signed": null, "width": null, "height": null, "entrance": null, "addr:postcode": null, "wikipedia": null, "wikimedia_commons": null, "wikidata": null, "name:en": null, "name:hi": null, "opening_hours": null, "addr:street": null, "barrier": null, "access": null, "shop": null, "religion": null, "denomination": null, "wheelchair": null, "name:te": null, "amenity": null }, "geometry": { "type": "Point", "coordinates": [ 78.3794936, 17.4529378 ] } },
{ "type": "Feature", "properties": { "id": "tourism_attraction_hyderabad_.8", "Name": "Kanjerla Laxmi Narayan Yadav Park", "description": null, "timestamp": null, "begin": null, "end": null, "altitudeMode": null, "tessellate": -1, "extrude": 0, "visibility": -1, "drawOrder": null, "icon": null, "full_id": "n4107092489", "osm_id": "4107092489", "osm_type": "node", "tourism": "attraction", "operator": null, "addr:city": null, "name:signed": null, "width": null, "height": null, "entrance": null, "addr:postcode": null, "wikipedia": null, "wikimedia_commons": null, "wikidata": null, "name:en": null, "name:hi": null, "opening_hours": "Mo-Fr 16:00-21:00; Sa-Su 09:00-21:00", "addr:street": "Erragadda", "barrier": null, "access": null, "shop": null, "religion": null, "denomination": null, "wheelchair": null, "name:te": null, "amenity": null }, "geometry": { "type": "Point", "coordinates": [ 78.4411282, 17.4496173 ] } },
{ "type": "Feature", "properties": { "id": "tourism_attraction_hyderabad_.9", "Name": null, "description": null, "timestamp": null, "begin": null, "end": null, "altitudeMode": null, "tessellate": -1, "extrude": 0, "visibility": -1, "drawOrder": null, "icon": null, "full_id": "n4334925521", "osm_id": "4334925521", "osm_type": "node", "tourism": null, "operator": null, "addr:city": null, "name:signed": null, "width": null, "height": null, "entrance": null, "addr:postcode": null, "wikipedia": null, "wikimedia_commons": null, "wikidata": null, "name:en": null, "name:hi": null, "opening_hours": null, "addr:street": null, "barrier": "gate", "access": null, "shop": null, "religion": null, "denomination": null, "wheelchair": null, "name:te": null, "amenity": null }, "geometry": { "type": "Point", "coordinates": [ 78.4633339, 17.3317657 ] } },
{ "type": "Feature", "properties": { "id": "tourism_attraction_hyderabad_.10", "Name": "Ayyappa Temple", "description": null, "timestamp": null, "begin": null, "end": null, "altitudeMode": null, "tessellate": -1, "extrude": 0, "visibility": -1, "drawOrder": null, "icon": null, "full_id": "n4400596191", "osm_id": "4400596191", "osm_type": "node", "tourism": "attraction", "operator": null, "addr:city": null, "name:signed": null, "width": null, "height": null, "entrance": null, "addr:postcode": null, "wikipedia": null, "wikimedia_commons": null, "wikidata": null, "name:en": null, "name:hi": "Ayyappa Temple", "opening_hours": null, "addr:street": null, "barrier": null, "access": null, "shop": null, "religion": null, "denomination": null, "wheelchair": null, "name:te": null, "amenity": null }, "geometry": { "type": "Point", "coordinates": [ 78.4478418, 17.4470344 ] } },
{ "type": "Feature", "properties": { "id": "tourism_attraction_hyderabad_.11", "Name": "park", "description": null, "timestamp": null, "begin": null, "end": null, "altitudeMode": null, "tessellate": -1, "extrude": 0, "visibility": -1, "drawOrder": null, "icon": null, "full_id": "n4418622008", "osm_id": "4418622008", "osm_type": "node", "tourism": "attraction", "operator": null, "addr:city": null, "name:signed": null, "width": null, "height": null, "entrance": null, "addr:postcode": null, "wikipedia": null, "wikimedia_commons": null, "wikidata": null, "name:en": "park", "name:hi": null, "opening_hours": null, "addr:street": null, "barrier": null, "access": null, "shop": null, "religion": null, "denomination": null, "wheelchair": null, "name:te": null, "amenity": null }, "geometry": { "type": "Point", "coordinates": [ 78.4898232, 17.4060296 ] } },
{ "type": "Feature", "properties": { "id": "tourism_attraction_hyderabad_.12", "Name": "old admin bldg opp ladies hostel", "description": null, "timestamp": null, "begin": null, "end": null, "altitudeMode": null, "tessellate": -1, "extrude": 0, "visibility": -1, "drawOrder": null, "icon": null, "full_id": "n4431024690", "osm_id": "4431024690", "osm_type": "node", "tourism": "attraction", "operator": null, "addr:city": null, "name:signed": null, "width": null, "height": null, "entrance": null, "addr:postcode": null, "wikipedia": null, "wikimedia_commons": null, "wikidata": null, "name:en": null, "name:hi": null, "opening_hours": null, "addr:street": null, "barrier": null, "access": null, "shop": null, "religion": null, "denomination": null, "wheelchair": null, "name:te": null, "amenity": null }, "geometry": { "type": "Point", "coordinates": [ 78.5218416, 17.4117776 ] } },
{ "type": "Feature", "properties": { "id": "tourism_attraction_hyderabad_.13", "Name": null, "description": null, "timestamp": null, "begin": null, "end": null, "altitudeMode": null, "tessellate": -1, "extrude": 0, "visibility": -1, "drawOrder": null, "icon": null, "full_id": "n4452950393", "osm_id": "4452950393", "osm_type": "node", "tourism": "attraction", "operator": null, "addr:city": null, "name:signed": null, "width": null, "height": null, "entrance": null, "addr:postcode": null, "wikipedia": null, "wikimedia_commons": null, "wikidata": null, "name:en": "Tweet Apartment", "name:hi": null, "opening_hours": null, "addr:street": null, "barrier": null, "access": null, "shop": null, "religion": null, "denomination": null, "wheelchair": null, "name:te": null, "amenity": null }, "geometry": { "type": "Point", "coordinates": [ 78.3649878, 17.4168275 ] } },
{ "type": "Feature", "properties": { "id": "tourism_attraction_hyderabad_.14", "Name": "Taramati Baradari", "description": null, "timestamp": null, "begin": null, "end": null, "altitudeMode": null, "tessellate": -1, "extrude": 0, "visibility": -1, "drawOrder": null, "icon": null, "full_id": "n4683189592", "osm_id": "4683189592", "osm_type": "node", "tourism": "attraction", "operator": null, "addr:city": null, "name:signed": null, "width": null, "height": null, "entrance": null, "addr:postcode": null, "wikipedia": "en:Taramati Baradari", "wikimedia_commons": "Category:Taramati Baradari", "wikidata": "Q7685364", "name:en": "Taramati Baradari", "name:hi": null, "opening_hours": "Mo-Su 11:00-17:00", "addr:street": null, "barrier": null, "access": null, "shop": null, "religion": null, "denomination": null, "wheelchair": null, "name:te": null, "amenity": null }, "geometry": { "type": "Point", "coordinates": [ 78.3781632, 17.3761241 ] } },
{ "type": "Feature", "properties": { "id": "tourism_attraction_hyderabad_.15", "Name": "Muslim Graveyard", "description": null, "timestamp": null, "begin": null, "end": null, "altitudeMode": null, "tessellate": -1, "extrude": 0, "visibility": -1, "drawOrder": null, "icon": null, "full_id": "n4684735889", "osm_id": "4684735889", "osm_type": "node", "tourism": "attraction", "operator": null, "addr:city": null, "name:signed": null, "width": null, "height": null, "entrance": null, "addr:postcode": null, "wikipedia": null, "wikimedia_commons": null, "wikidata": null, "name:en": "Muslim Graveyard", "name:hi": null, "opening_hours": null, "addr:street": null, "barrier": null, "access": null, "shop": null, "religion": null, "denomination": null, "wheelchair": "limited", "name:te": null, "amenity": null }, "geometry": { "type": "Point", "coordinates": [ 78.4747728, 17.3700458 ] } },
{ "type": "Feature", "properties": { "id": "tourism_attraction_hyderabad_.16", "Name": "B-91, HAL Township", "description": null, "timestamp": null, "begin": null, "end": null, "altitudeMode": null, "tessellate": -1, "extrude": 0, "visibility": -1, "drawOrder": null, "icon": null, "full_id": "n5135633623", "osm_id": "5135633623", "osm_type": "node", "tourism": "attraction", "operator": null, "addr:city": null, "name:signed": null, "width": null, "height": null, "entrance": null, "addr:postcode": "500042", "wikipedia": null, "wikimedia_commons": null, "wikidata": null, "name:en": null, "name:hi": null, "opening_hours": null, "addr:street": "HAL Township", "barrier": null, "access": null, "shop": null, "religion": null, "denomination": null, "wheelchair": null, "name:te": null, "amenity": null }, "geometry": { "type": "Point", "coordinates": [ 78.4521072, 17.4701107 ] } },
{ "type": "Feature", "properties": { "id": "tourism_attraction_hyderabad_.17", "Name": null, "description": null, "timestamp": null, "begin": null, "end": null, "altitudeMode": null, "tessellate": -1, "extrude": 0, "visibility": -1, "drawOrder": null, "icon": null, "full_id": "n5554308056", "osm_id": "5554308056", "osm_type": "node", "tourism": null, "operator": null, "addr:city": null, "name:signed": null, "width": "10", "height": "15", "entrance": "main", "addr:postcode": null, "wikipedia": null, "wikimedia_commons": null, "wikidata": null, "name:en": null, "name:hi": null, "opening_hours": null, "addr:street": null, "barrier": null, "access": null, "shop": null, "religion": null, "denomination": null, "wheelchair": null, "name:te": null, "amenity": null }, "geometry": { "type": "Point", "coordinates": [ 78.4746645, 17.3617141 ] } },
{ "type": "Feature", "properties": { "id": "tourism_attraction_hyderabad_.18", "Name": null, "description": null, "timestamp": null, "begin": null, "end": null, "altitudeMode": null, "tessellate": -1, "extrude": 0, "visibility": -1, "drawOrder": null, "icon": null, "full_id": "n6907939616", "osm_id": "6907939616", "osm_type": "node", "tourism": null, "operator": null, "addr:city": null, "name:signed": "no", "width": null, "height": null, "entrance": null, "addr:postcode": null, "wikipedia": null, "wikimedia_commons": null, "wikidata": null, "name:en": null, "name:hi": null, "opening_hours": null, "addr:street": null, "barrier": null, "access": null, "shop": null, "religion": null, "denomination": null, "wheelchair": null, "name:te": null, "amenity": "ferry_terminal" }, "geometry": { "type": "Point", "coordinates": [ 78.4753187, 17.4154636 ] } },
{ "type": "Feature", "properties": { "id": "tourism_attraction_hyderabad_.19", "Name": "Rolex", "description": null, "timestamp": null, "begin": null, "end": null, "altitudeMode": null, "tessellate": -1, "extrude": 0, "visibility": -1, "drawOrder": null, "icon": null, "full_id": "n7113998288", "osm_id": "7113998288", "osm_type": "node", "tourism": "attraction", "operator": null, "addr:city": null, "name:signed": null, "width": null, "height": null, "entrance": null, "addr:postcode": null, "wikipedia": null, "wikimedia_commons": null, "wikidata": null, "name:en": null, "name:hi": null, "opening_hours": null, "addr:street": null, "barrier": null, "access": null, "shop": null, "religion": null, "denomination": null, "wheelchair": null, "name:te": null, "amenity": null }, "geometry": { "type": "Point", "coordinates": [ 78.4074614, 17.4310473 ] } },
{ "type": "Feature", "properties": { "id": "tourism_attraction_hyderabad_.20", "Name": null, "description": null, "timestamp": null, "begin": null, "end": null, "altitudeMode": null, "tessellate": -1, "extrude": 0, "visibility": -1, "drawOrder": null, "icon": null, "full_id": "n7154657875", "osm_id": "7154657875", "osm_type": "node", "tourism": "attraction", "operator": null, "addr:city": null, "name:signed": null, "width": null, "height": null, "entrance": null, "addr:postcode": null, "wikipedia": null, "wikimedia_commons": null, "wikidata": null, "name:en": null, "name:hi": null, "opening_hours": null, "addr:street": null, "barrier": null, "access": null, "shop": null, "religion": null, "denomination": null, "wheelchair": null, "name:te": null, "amenity": null }, "geometry": { "type": "Point", "coordinates": [ 78.3993426, 17.3833448 ] } },
{ "type": "Feature", "properties": { "id": "tourism_attraction_hyderabad_.21", "Name": "Neelima Greens Park Club house", "description": null, "timestamp": null, "begin": null, "end": null, "altitudeMode": null, "tessellate": -1, "extrude": 0, "visibility": -1, "drawOrder": null, "icon": null, "full_id": "n8007055195", "osm_id": "8007055195", "osm_type": "node", "tourism": "attraction", "operator": "Neelima Greens Association", "addr:city": "Hyderabad", "name:signed": null, "width": null, "height": null, "entrance": null, "addr:postcode": "500049", "wikipedia": null, "wikimedia_commons": null, "wikidata": null, "name:en": null, "name:hi": null, "opening_hours": null, "addr:street": "Neelima Greens Main Road", "barrier": null, "access": null, "shop": null, "religion": null, "denomination": null, "wheelchair": null, "name:te": null, "amenity": null }, "geometry": { "type": "Point", "coordinates": [ 78.356651, 17.5016683 ] } }
]
}
