{
"type": "FeatureCollection",
"name": "hyderabad_boundary",
"crs": { "type": "name", "properties": { "name": "urn:ogc:def:crs:EPSG::32644" } },
"features": [
{ "type": "Feature", "properties": { "id": null }, "geometry": { "type": "MultiPolygon", "coordinates": [ [ [ [ 221552.476422184205148, 1943472.796004659729078 ], [ 222617.35722108988557, 1945013.981802904047072 ], [ 224634.39000809751451, 1946824.868650781456381 ], [ 224634.39000809751451, 1946824.868650781456381 ], [ 224634.39000809751451, 1946824.868650781456381 ], [ 228404.159207218559459, 1948517.690791970817372 ], [ 229069.883585595292971, 1948650.107022619107738 ], [ 233846.255627945240121, 1947643.559871403733268 ], [ 235214.484482878120616, 1947106.992891110945493 ], [ 239425.368366430077003, 1946344.934150864835829 ], [ 241875.934444367274409, 1945134.903263924410567 ], [ 244911.349064256995916, 1945143.335973667679355 ], [ 247694.25099360087188, 1943929.806104805786163 ], [ 248202.325177523191087, 1942839.219550290377811 ], [ 248786.524350549967494, 1940238.987900441978127 ], [ 251301.813783314632019, 1936482.914726814022288 ], [ 252504.028643204452237, 1933921.650554420892149 ], [ 252681.707103749125963, 1932929.085011518793181 ], [ 252422.594328568084165, 1931139.98323250701651 ], [ 252273.046446660300717, 1930552.213467507157475 ], [ 252524.245607078482863, 1929747.270863160025328 ], [ 253311.16498680919176, 1928110.265230142511427 ], [ 253939.581471715675434, 1925130.504858581349254 ], [ 254165.4985164803511, 1924184.14992254297249 ], [ 253758.404091529548168, 1921924.190863113617525 ], [ 251151.826835533982376, 1918416.416504374006763 ], [ 251115.624740190338343, 1915443.266800187760964 ], [ 250555.897918615955859, 1912381.636294353520498 ], [ 244607.853990928997518, 1907733.144971422385424 ], [ 237820.935451629920863, 1904607.075156028848141 ], [ 230299.745844610559288, 1903665.068748909747228 ], [ 223076.58018590149004, 1903760.942646547453478 ], [ 221670.078042769513559, 1905197.071688579861075 ], [ 221804.740634807036258, 1908123.751518872566521 ], [ 220681.144579390296713, 1909366.968652806244791 ], [ 221950.954826697998215, 1911899.871560543077067 ], [ 221244.890790824021678, 1915875.749539553653449 ], [ 221259.047844471642748, 1916914.22128552896902 ], [ 218393.979031099646818, 1922712.540682471124455 ], [ 218811.613060295407195, 1925444.111943094059825 ], [ 219511.383578721666709, 1927982.670112659689039 ], [ 218993.685612018685788, 1924875.280902593396604 ], [ 216832.189530300267506, 1926509.787454366218299 ], [ 213803.309508268837817, 1927212.86888724938035 ], [ 212282.911655507865362, 1927139.951625104062259 ], [ 209545.746852931624744, 1928311.45874372520484 ], [ 208220.005389036261477, 1931869.405006046639755 ], [ 207853.911500005342532, 1932818.296394866192713 ], [ 207257.712547634379007, 1937544.371241745306179 ], [ 206302.44112521369243, 1940388.214267905335873 ], [ 206793.309490871673916, 1941512.956104766577482 ], [ 207842.435524895321578, 1941875.006804793374613 ], [ 211507.270548049651552, 1942671.059878456173465 ], [ 213452.762440456834156, 1942690.460462698247284 ], [ 214697.396790540311486, 1943474.413465839810669 ], [ 215784.338699767482467, 1943176.133505360456184 ], [ 217454.380445792863611, 1943859.917024289024994 ], [ 221719.782901005703025, 1943564.78367352229543 ], [ 221552.476422184205148, 1943472.796004659729078 ] ] ] ] } }
]
}
