{
"type": "FeatureCollection",
"name": "disposal_map",
"crs": { "type": "name", "properties": { "name": "urn:ogc:def:crs:OGC:1.3:CRS84" } },
"features": [
{ "type": "Feature", "properties": { "City": "Delhi", "State": "Delhi", "Landfill Name": "Okhla Landfill", "Latitude": 28.534, "Longitude": 77.289, "Type": "landfill", "Status": "active" }, "geometry": { "type": "Point", "coordinates": [ 77.289, 28.534 ] } },
{ "type": "Feature", "properties": { "City": "Delhi", "State": "Delhi", "Landfill Name": "Bhalswa Landfill", "Latitude": 28.75, "Longitude": 77.15, "Type": "landfill", "Status": "active" }, "geometry": { "type": "Point", "coordinates": [ 77.15, 28.75 ] } },
{ "type": "Feature", "properties": { "City": "Delhi", "State": "Delhi", "Landfill Name": "Ghazipur Landfill", "Latitude": 28.65, "Longitude": 77.3, "Type": "landfill", "Status": "active" }, "geometry": { "type": "Point", "coordinates": [ 77.3, 28.65 ] } },
{ "type": "Feature", "properties": { "City": "Mumbai", "State": "Maharashtra", "Landfill Name": "Deonar Dumping Ground", "Latitude": 19.045, "Longitude": 72.915, "Type": "landfill", "Status": "active" }, "geometry": { "type": "Point", "coordinates": [ 72.915, 19.045 ] } },
{ "type": "Feature", "properties": { "City": "Mumbai", "State": "Maharashtra", "Landfill Name": "Kanjurmarg", "Latitude": 19.1, "Longitude": 72.85, "Type": "landfill", "Status": "active" }, "geometry": { "type": "Point", "coordinates": [ 72.85, 19.1 ] } },
{ "type": "Feature", "properties": { "City": "Bengaluru", "State": "Karnataka", "Landfill Name": "Mandur Dump Yard", "Latitude": 13.15, "Longitude": 77.8, "Type": "landfill", "Status": "active" }, "geometry": { "type": "Point", "coordinates": [ 77.8, 13.15 ] } },
{ "type": "Feature", "properties": { "City": "Bengaluru", "State": "Karnataka", "Landfill Name": "Doddaballapur Road", "Latitude": 13.2, "Longitude": 77.65, "Type": "landfill", "Status": "active" }, "geometry": { "type": "Point", "coordinates": [ 77.65, 13.2 ] } },
{ "type": "Feature", "properties": { "City": "Chennai", "State": "Tamil Nadu", "Landfill Name": "Kodungaiyur Dump Yard", "Latitude": 13.14, "Longitude": 80.28, "Type": "landfill", "Status": "active" }, "geometry": { "type": "Point", "coordinates": [ 80.28, 13.14 ] } },
{ "type": "Feature", "properties": { "City": "Chennai", "State": "Tamil Nadu", "Landfill Name": "Perungudi", "Latitude": 13.0, "Longitude": 80.26, "Type": "landfill", "Status": "active" }, "geometry": { "type": "Point", "coordinates": [ 80.26, 13.0 ] } },
{ "type": "Feature", "properties": { "City": "Hyderabad", "State": "Telangana", "Landfill Name": "Jawaharnagar Dump Yard", "Latitude": 17.45, "Longitude": 78.45, "Type": "landfill", "Status": "active" }, "geometry": { "type": "Point", "coordinates": [ 78.45, 17.45 ] } },
{ "type": "Feature", "properties": { "City": "Pune", "State": "Maharashtra", "Landfill Name": "Uruli Devachi", "Latitude": 18.45, "Longitude": 74.05, "Type": "landfill", "Status": "biomining" }, "geometry": { "type": "Point", "coordinates": [ 74.05, 18.45 ] } },
{ "type": "Feature", "properties": { "City": "Ahmedabad", "State": "Gujarat", "Landfill Name": "Pirana Dumping Ground", "Latitude": 22.95, "Longitude": 72.65, "Type": "landfill", "Status": "active" }, "geometry": { "type": "Point", "coordinates": [ 72.65, 22.95 ] } },
{ "type": "Feature", "properties": { "City": "Kolkata", "State": "West Bengal", "Landfill Name": "Dhapa Landfill", "Latitude": 22.55, "Longitude": 88.42, "Type": "landfill", "Status": "active" }, "geometry": { "type": "Point", "coordinates": [ 88.42, 22.55 ] } },
{ "type": "Feature", "properties": { "City": "Surat", "State": "Gujarat", "Landfill Name": "Khadi Ecopark", "Latitude": 21.15, "Longitude": 72.85, "Type": "landfill", "Status": "active" }, "geometry": { "type": "Point", "coordinates": [ 72.85, 21.15 ] } },
{ "type": "Feature", "properties": { "City": "Jaipur", "State": "Rajasthan", "Landfill Name": "Poonchwa Dump Site", "Latitude": 26.85, "Longitude": 75.85, "Type": "landfill", "Status": "remediation" }, "geometry": { "type": "Point", "coordinates": [ 75.85, 26.85 ] } },
{ "type": "Feature", "properties": { "City": "Lucknow", "State": "Uttar Pradesh", "Landfill Name": "Shiveri", "Latitude": 26.85, "Longitude": 81.0, "Type": "landfill", "Status": "active" }, "geometry": { "type": "Point", "coordinates": [ 81.0, 26.85 ] } },
{ "type": "Feature", "properties": { "City": "Kanpur", "State": "Uttar Pradesh", "Landfill Name": "Panki", "Latitude": 26.45, "Longitude": 80.35, "Type": "landfill", "Status": "active" }, "geometry": { "type": "Point", "coordinates": [ 80.35, 26.45 ] } },
{ "type": "Feature", "properties": { "City": "Nagpur", "State": "Maharashtra", "Landfill Name": "Bhore", "Latitude": 21.15, "Longitude": 79.1, "Type": "landfill", "Status": "active" }, "geometry": { "type": "Point", "coordinates": [ 79.1, 21.15 ] } },
{ "type": "Feature", "properties": { "City": "Indore", "State": "Madhya Pradesh", "Landfill Name": "Devguradiya", "Latitude": 22.75, "Longitude": 75.85, "Type": "landfill", "Status": "active" }, "geometry": { "type": "Point", "coordinates": [ 75.85, 22.75 ] } },
{ "type": "Feature", "properties": { "City": "Bhopal", "State": "Madhya Pradesh", "Landfill Name": "Adampur", "Latitude": 23.25, "Longitude": 77.4, "Type": "landfill", "Status": "active" }, "geometry": { "type": "Point", "coordinates": [ 77.4, 23.25 ] } },
{ "type": "Feature", "properties": { "City": "Visakhapatnam", "State": "Andhra Pradesh", "Landfill Name": "Duvvada", "Latitude": 17.75, "Longitude": 83.2, "Type": "landfill", "Status": "active" }, "geometry": { "type": "Point", "coordinates": [ 83.2, 17.75 ] } },
{ "type": "Feature", "properties": { "City": "Vijayawada", "State": "Andhra Pradesh", "Landfill Name": "Autonagar", "Latitude": 16.5, "Longitude": 80.65, "Type": "landfill", "Status": "active" }, "geometry": { "type": "Point", "coordinates": [ 80.65, 16.5 ] } },
{ "type": "Feature", "properties": { "City": "Coimbatore", "State": "Tamil Nadu", "Landfill Name": "Vellalore", "Latitude": 11.0, "Longitude": 77.0, "Type": "landfill", "Status": "active" }, "geometry": { "type": "Point", "coordinates": [ 77.0, 11.0 ] } },
{ "type": "Feature", "properties": { "City": "Kochi", "State": "Kerala", "Landfill Name": "Brahmapuram", "Latitude": 9.95, "Longitude": 76.35, "Type": "landfill", "Status": "active" }, "geometry": { "type": "Point", "coordinates": [ 76.35, 9.95 ] } },
{ "type": "Feature", "properties": { "City": "Thiruvananthapuram", "State": "Kerala", "Landfill Name": "Brennen College", "Latitude": 8.5, "Longitude": 76.95, "Type": "landfill", "Status": "active" }, "geometry": { "type": "Point", "coordinates": [ 76.95, 8.5 ] } },
{ "type": "Feature", "properties": { "City": "Vadodara", "State": "Gujarat", "Landfill Name": "Samiyala", "Latitude": 22.3, "Longitude": 73.2, "Type": "landfill", "Status": "active" }, "geometry": { "type": "Point", "coordinates": [ 73.2, 22.3 ] } },
{ "type": "Feature", "properties": { "City": "Rajkot", "State": "Gujarat", "Landfill Name": "Mangla Hall", "Latitude": 22.3, "Longitude": 70.8, "Type": "landfill", "Status": "active" }, "geometry": { "type": "Point", "coordinates": [ 70.8, 22.3 ] } },
{ "type": "Feature", "properties": { "City": "Jabalpur", "State": "Madhya Pradesh", "Landfill Name": "Bhedaghat", "Latitude": 23.15, "Longitude": 79.95, "Type": "landfill", "Status": "active" }, "geometry": { "type": "Point", "coordinates": [ 79.95, 23.15 ] } },
{ "type": "Feature", "properties": { "City": "Tirupati", "State": "Andhra Pradesh", "Landfill Name": "Chittoor Road", "Latitude": 13.65, "Longitude": 79.4, "Type": "landfill", "Status": "active" }, "geometry": { "type": "Point", "coordinates": [ 79.4, 13.65 ] } },
{ "type": "Feature", "properties": { "City": "Warangal", "State": "Telangana", "Landfill Name": "Narsampet Road", "Latitude": 18.0, "Longitude": 79.6, "Type": "landfill", "Status": "active" }, "geometry": { "type": "Point", "coordinates": [ 79.6, 18.0 ] } }
]
}
